[{"OBJECT_NAME":"ONEWEB-0033","OBJECT_ID":"2020-008M","EPOCH":"2026-04-30T06:04:24.342528","MEAN_MOTION":13.10371009,"ECCENTRICITY":0.0001756,"INCLINATION":87.8849,"RA_OF_ASC_NODE":45.8167,"ARG_OF_PERICENTER":61.9881,"MEAN_ANOMALY":298.1424,"EPHEMERIS_TYPE":0,"CLASSIFICATION_TYPE":"U","NORAD_CAT_ID":45142,"ELEMENT_SET_NO":999,"REV_AT_EPOCH":30193,"BSTAR":0.0013400999999999999,"MEAN_MOTION_DOT":4.8e-06,"MEAN_MOTION_DDOT":0.0},{"OBJECT_NAME":"ONEWEB-0035","OBJECT_ID":"2020-008N","EPOCH":"2026-04-30T04:56:23.349120","MEAN_MOTION":13.10884983,"ECCENTRICITY":0.0001845,"INCLINATION":87.885,"RA_OF_ASC_NODE":45.823,"ARG_OF_PERICENTER":74.8608,"MEAN_ANOMALY":285.2724,"EPHEMERIS_TYPE":0,"CLASSIFICATION_TYPE":"U","NORAD_CAT_ID":45143,"ELEMENT_SET_NO":999,"REV_AT_EPOCH":30165,"BSTAR":-0.0014446,"MEAN_MOTION_DOT":-4.95e-06,"MEAN_MOTION_DDOT":0.0},{"OBJECT_NAME":"ONEWEB-0036","OBJECT_ID":"2020-008P","EPOCH":"2026-04-30T05:30:03.084768","MEAN_MOTION":13.09822589,"ECCENTRICITY":0.0001924,"INCLINATION":87.8873,"RA_OF_ASC_NODE":45.8092,"ARG_OF_PERICENTER":85.2065,"MEAN_ANOMALY":274.9281,"EPHEMERIS_TYPE":0,"CLASSIFICATION_TYPE":"U","NORAD_CAT_ID":45144,"ELEMENT_SET_NO":999,"REV_AT_EPOCH":30208,"BSTAR":0.0011037,"MEAN_MOTION_DOT":3.95e-06,"MEAN_MOTION_DDOT":0.0},{"OBJECT_NAME":"ONEWEB-0038","OBJECT_ID":"2020-008Q","EPOCH":"2026-04-30T06:06:29.332224","MEAN_MOTION":13.11420435,"ECCENTRICITY":0.0003386,"INCLINATION":87.8941,"RA_OF_ASC_NODE":30.601,"ARG_OF_PERICENTER":63.3238,"MEAN_ANOMALY":296.8236,"EPHEMERIS_TYPE":0,"CLASSIFICATION_TYPE":"U","NORAD_CAT_ID":45145,"ELEMENT_SET_NO":999,"REV_AT_EPOCH":30404,"BSTAR":-0.00019946,"MEAN_MOTION_DOT":-5.8e-07,"MEAN_MOTION_DDOT":0.0},{"OBJECT_NAME":"ONEWEB-0039","OBJECT_ID":"2020-008R","EPOCH":"2026-04-30T06:09:10.178784","MEAN_MOTION":13.10369635,"ECCENTRICITY":0.0002213,"INCLINATION":87.8855,"RA_OF_ASC_NODE":45.8044,"ARG_OF_PERICENTER":89.1936,"MEAN_ANOMALY":270.9445,"EPHEMERIS_TYPE":0,"CLASSIFICATION_TYPE":"U","NORAD_CAT_ID":45146,"ELEMENT_SET_NO":999,"REV_AT_EPOCH":30188,"BSTAR":0.0008436,"MEAN_MOTION_DOT":3.07e-06,"MEAN_MOTION_DDOT":0.0},{"OBJECT_NAME":"ONEWEB-0040","OBJECT_ID":"2020-008S","EPOCH":"2026-04-30T05:59:37.081536","MEAN_MOTION":13.10371012,"ECCENTRICITY":0.0001954,"INCLINATION":87.885,"RA_OF_ASC_NODE":45.8181,"ARG_OF_PERICENTER":77.573,"MEAN_ANOMALY":282.5616,"EPHEMERIS_TYPE":0,"CLASSIFICATION_TYPE":"U","NORAD_CAT_ID":45147,"ELEMENT_SET_NO":999,"REV_AT_EPOCH":30158,"BSTAR":0.0016129,"MEAN_MOTION_DOT":5.76e-06,"MEAN_MOTION_DDOT":0.0},{"OBJECT_NAME":"ONEWEB-0043","OBJECT_ID":"2020-008U","EPOCH":"2026-04-30T06:02:00.040704","MEAN_MOTION":13.10370487,"ECCENTRICITY":0.0002265,"INCLINATION":87.8857,"RA_OF_ASC_NODE":45.8037,"ARG_OF_PERICENTER":90.7175,"MEAN_ANOMALY":269.4212,"EPHEMERIS_TYPE":0,"CLASSIFICATION_TYPE":"U","NORAD_CAT_ID":45149,"ELEMENT_SET_NO":999,"REV_AT_EPOCH":30190,"BSTAR":0.0015463,"MEAN_MOTION_DOT":5.52e-06,"MEAN_MOTION_DDOT":0.0},{"OBJECT_NAME":"ONEWEB-0044","OBJECT_ID":"2020-008V","EPOCH":"2026-04-30T04:52:40.247040","MEAN_MOTION":13.10373447,"ECCENTRICITY":0.0002048,"INCLINATION":87.8861,"RA_OF_ASC_NODE":45.8109,"ARG_OF_PERICENTER":81.3903,"MEAN_ANOMALY":278.7457,"EPHEMERIS_TYPE":0,"CLASSIFICATION_TYPE":"U","NORAD_CAT_ID":45150,"ELEMENT_SET_NO":999,"REV_AT_EPOCH":30219,"BSTAR":-0.0017192,"MEAN_MOTION_DOT":-5.87e-06,"MEAN_MOTION_DDOT":0.0},{"OBJECT_NAME":"ONEWEB-0045","OBJECT_ID":"2020-008W","EPOCH":"2026-04-30T05:58:57.531936","MEAN_MOTION":13.11420045,"ECCENTRICITY":0.0001919,"INCLINATION":87.8936,"RA_OF_ASC_NODE":30.5872,"ARG_OF_PERICENTER":79.5768,"MEAN_ANOMALY":280.5577,"EPHEMERIS_TYPE":0,"CLASSIFICATION_TYPE":"U","NORAD_CAT_ID":45151,"ELEMENT_SET_NO":999,"REV_AT_EPOCH":30412,"BSTAR":-0.00083727,"MEAN_MOTION_DOT":-2.84e-06,"MEAN_MOTION_DDOT":0.0},{"OBJECT_NAME":"ONEWEB-0047","OBJECT_ID":"2020-008X","EPOCH":"2026-04-30T06:33:03.343968","MEAN_MOTION":13.10371621,"ECCENTRICITY":0.0001925,"INCLINATION":87.8858,"RA_OF_ASC_NODE":45.7973,"ARG_OF_PERICENTER":73.3385,"MEAN_ANOMALY":286.7953,"EPHEMERIS_TYPE":0,"CLASSIFICATION_TYPE":"U","NORAD_CAT_ID":45152,"ELEMENT_SET_NO":999,"REV_AT_EPOCH":30192,"BSTAR":-0.0014155,"MEAN_MOTION_DOT":-4.81e-06,"MEAN_MOTION_DDOT":0.0},{"OBJECT_NAME":"ONEWEB-0048","OBJECT_ID":"2020-008Y","EPOCH":"2026-04-30T06:25:53.198112","MEAN_MOTION":13.10369789,"ECCENTRICITY":0.0002015,"INCLINATION":87.885,"RA_OF_ASC_NODE":45.8228,"ARG_OF_PERICENTER":77.7262,"MEAN_ANOMALY":282.4091,"EPHEMERIS_TYPE":0,"CLASSIFICATION_TYPE":"U","NORAD_CAT_ID":45153,"ELEMENT_SET_NO":999,"REV_AT_EPOCH":30153,"BSTAR":-0.000825,"MEAN_MOTION_DOT":-2.75e-06,"MEAN_MOTION_DDOT":0.0},{"OBJECT_NAME":"ONEWEB-0049","OBJECT_ID":"2020-008Z","EPOCH":"2026-04-30T06:30:28.383840","MEAN_MOTION":13.10371064,"ECCENTRICITY":0.0001651,"INCLINATION":87.8853,"RA_OF_ASC_NODE":45.8105,"ARG_OF_PERICENTER":91.6274,"MEAN_ANOMALY":268.5042,"EPHEMERIS_TYPE":0,"CLASSIFICATION_TYPE":"U","NORAD_CAT_ID":45154,"ELEMENT_SET_NO":999,"REV_AT_EPOCH":30175,"BSTAR":-0.0013333000000000002,"MEAN_MOTION_DOT":-4.53e-06,"MEAN_MOTION_DDOT":0.0},{"OBJECT_NAME":"ONEWEB-0051","OBJECT_ID":"2020-008AA","EPOCH":"2026-04-30T05:56:30.340032","MEAN_MOTION":13.11416093,"ECCENTRICITY":0.0001868,"INCLINATION":87.8932,"RA_OF_ASC_NODE":30.5985,"ARG_OF_PERICENTER":79.4275,"MEAN_ANOMALY":280.7063,"EPHEMERIS_TYPE":0,"CLASSIFICATION_TYPE":"U","NORAD_CAT_ID":45155,"ELEMENT_SET_NO":999,"REV_AT_EPOCH":30480,"BSTAR":-0.00096889,"MEAN_MOTION_DOT":-3.31e-06,"MEAN_MOTION_DDOT":0.0},{"OBJECT_NAME":"ONEWEB-0052","OBJECT_ID":"2020-008AB","EPOCH":"2026-04-30T05:09:55.427904","MEAN_MOTION":13.10496107,"ECCENTRICITY":0.0001708,"INCLINATION":87.886,"RA_OF_ASC_NODE":45.8068,"ARG_OF_PERICENTER":91.815,"MEAN_ANOMALY":268.3173,"EPHEMERIS_TYPE":0,"CLASSIFICATION_TYPE":"U","NORAD_CAT_ID":45156,"ELEMENT_SET_NO":999,"REV_AT_EPOCH":30165,"BSTAR":-0.0011595,"MEAN_MOTION_DOT":-3.93e-06,"MEAN_MOTION_DDOT":0.0},{"OBJECT_NAME":"ONEWEB-0053","OBJECT_ID":"2020-008AC","EPOCH":"2026-04-30T05:57:14.037696","MEAN_MOTION":13.10371626,"ECCENTRICITY":0.0002098,"INCLINATION":87.8851,"RA_OF_ASC_NODE":45.8238,"ARG_OF_PERICENTER":92.6635,"MEAN_ANOMALY":267.4732,"EPHEMERIS_TYPE":0,"CLASSIFICATION_TYPE":"U","NORAD_CAT_ID":45157,"ELEMENT_SET_NO":999,"REV_AT_EPOCH":30163,"BSTAR":0.0017355,"MEAN_MOTION_DOT":6.19e-06,"MEAN_MOTION_DDOT":0.0},{"OBJECT_NAME":"ONEWEB-0054","OBJECT_ID":"2020-008AD","EPOCH":"2026-04-30T04:57:26.317440","MEAN_MOTION":13.10373526,"ECCENTRICITY":0.0001808,"INCLINATION":87.8862,"RA_OF_ASC_NODE":45.8107,"ARG_OF_PERICENTER":79.5772,"MEAN_ANOMALY":280.5559,"EPHEMERIS_TYPE":0,"CLASSIFICATION_TYPE":"U","NORAD_CAT_ID":45158,"ELEMENT_SET_NO":999,"REV_AT_EPOCH":30174,"BSTAR":-0.0017839,"MEAN_MOTION_DOT":-6.1e-06,"MEAN_MOTION_DDOT":0.0}]