ONEWEB-0033             
1 45142U 20008M   26120.25305952  .00000480  00000+0  13401-2 0  9990
2 45142  87.8849  45.8167 0001756  61.9881 298.1424 13.10371009301936
ONEWEB-0035             
1 45143U 20008N   26120.20582580 -.00000495  00000+0 -14446-2 0  9998
2 45143  87.8850  45.8230 0001845  74.8608 285.2724 13.10884983301658
ONEWEB-0036             
1 45144U 20008P   26120.22920237  .00000395  00000+0  11037-2 0  9996
2 45144  87.8873  45.8092 0001924  85.2065 274.9281 13.09822589302084
ONEWEB-0038             
1 45145U 20008Q   26120.25450616 -.00000058  00000+0 -19946-3 0  9995
2 45145  87.8941  30.6010 0003386  63.3238 296.8236 13.11420435304044
ONEWEB-0039             
1 45146U 20008R   26120.25636781  .00000307  00000+0  84360-3 0  9992
2 45146  87.8855  45.8044 0002213  89.1936 270.9445 13.10369635301880
ONEWEB-0040             
1 45147U 20008S   26120.24973474  .00000576  00000+0  16129-2 0  9990
2 45147  87.8850  45.8181 0001954  77.5730 282.5616 13.10371012301580
ONEWEB-0043             
1 45149U 20008U   26120.25138936  .00000552  00000+0  15463-2 0  9993
2 45149  87.8857  45.8037 0002265  90.7175 269.4212 13.10370487301902
ONEWEB-0044             
1 45150U 20008V   26120.20324360 -.00000587  00000+0 -17192-2 0  9999
2 45150  87.8861  45.8109 0002048  81.3903 278.7457 13.10373447302198
ONEWEB-0045             
1 45151U 20008W   26120.24927699 -.00000284  00000+0 -83727-3 0  9990
2 45151  87.8936  30.5872 0001919  79.5768 280.5577 13.11420045304121
ONEWEB-0047             
1 45152U 20008X   26120.27295537 -.00000481  00000+0 -14155-2 0  9990
2 45152  87.8858  45.7973 0001925  73.3385 286.7953 13.10371621301924
ONEWEB-0048             
1 45153U 20008Y   26120.26797683 -.00000275  00000+0 -82500-3 0  9990
2 45153  87.8850  45.8228 0002015  77.7262 282.4091 13.10369789301539
ONEWEB-0049             
1 45154U 20008Z   26120.27116185 -.00000453  00000+0 -13333-2 0  9999
2 45154  87.8853  45.8105 0001651  91.6274 268.5042 13.10371064301754
ONEWEB-0051             
1 45155U 20008AA  26120.24757338 -.00000331  00000+0 -96889-3 0  9991
2 45155  87.8932  30.5985 0001868  79.4275 280.7063 13.11416093304806
ONEWEB-0052             
1 45156U 20008AB  26120.21522486 -.00000393  00000+0 -11595-2 0  9991
2 45156  87.8860  45.8068 0001708  91.8150 268.3173 13.10496107301658
ONEWEB-0053             
1 45157U 20008AC  26120.24807914  .00000619  00000+0  17355-2 0  9996
2 45157  87.8851  45.8238 0002098  92.6635 267.4732 13.10371626301635
ONEWEB-0054             
1 45158U 20008AD  26120.20655460 -.00000610  00000+0 -17839-2 0  9990
2 45158  87.8862  45.8107 0001808  79.5772 280.5559 13.10373526301743
